{"type": "FeatureCollection", "features": [ {"type": "Feature", "properties": {"norad_id": 33867, "name": "IRIDIUM 33 DEB", "group": "iridium-33-debris", "lat": -42.04598136179043, "lon": -11.07316825906529, "alt_km": 398.11058535356733, "timestamp": "2025-12-08T15:42:50.180197+00:00", "meta": {"OBJECT_NAME": "IRIDIUM 33 DEB", "OBJECT_ID": "1997-051AL", "EPOCH": "2025-12-08T00:30:06.071904", "MEAN_MOTION": 15.59900081, "ECCENTRICITY": 0.00126124, "INCLINATION": 86.362, "RA_OF_ASC_NODE": 352.5419, "ARG_OF_PERICENTER": 91.454, "MEAN_ANOMALY": 268.817, "EPHEMERIS_TYPE": 0, "CLASSIFICATION_TYPE": "U", "NORAD_CAT_ID": 33867, "ELEMENT_SET_NO": 999, "REV_AT_EPOCH": 89437, "BSTAR": 0.0073518135, "MEAN_MOTION_DOT": 0.0063966, "MEAN_MOTION_DDOT": 0}, "tle": {"line1": "1 33867U 97051AL  25342.02090361  .00639660  00000+0  73518-2 0  9991", "line2": "2 33867  86.3620 352.5419 0012612  91.4540 268.8170 15.59900081894379"}}, "geometry": {"type": "Point", "coordinates": [-11.07316825906529, -42.04598136179043]}}, {"type": "Feature", "properties": {"norad_id": 33870, "name": "IRIDIUM 33 DEB", "group": "iridium-33-debris", "lat": -42.36621110717379, "lon": 56.697129338482995, "alt_km": 754.8238991291491, "timestamp": "2025-12-08T15:42:50.180208+00:00", "meta": {"OBJECT_NAME": "IRIDIUM 33 DEB", "OBJECT_ID": "1997-051AP", "EPOCH": "2025-12-08T04:35:04.159104", "MEAN_MOTION": 14.45812743, "ECCENTRICITY": 0.00209812, "INCLINATION": 86.3749, "RA_OF_ASC_NODE": 60.2105, "ARG_OF_PERICENTER": 193.1042, "MEAN_ANOMALY": 232.1982, "EPHEMERIS_TYPE": 0, "CLASSIFICATION_TYPE": "U", "NORAD_CAT_ID": 33870, "ELEMENT_SET_NO": 999, "REV_AT_EPOCH": 88071, "BSTAR": 0.0011351553, "MEAN_MOTION_DOT": 4.056e-05, "MEAN_MOTION_DDOT": 0}, "tle": {"line1": "1 33870U 97051AP  25342.19102036  .00004056  00000+0  11352-2 0  9999", "line2": "2 33870  86.3749  60.2105 0020981 193.1042 232.1982 14.45812743880714"}}, "geometry": {"type": "Point", "coordinates": [56.697129338482995, -42.36621110717379]}}, {"type": "Feature", "properties": {"norad_id": 33881, "name": "IRIDIUM 33 DEB", "group": "iridium-33-debris", "lat": 28.45558765917942, "lon": 110.47981793726149, "alt_km": 744.1031325546637, "timestamp": "2025-12-08T15:42:50.180218+00:00", "meta": {"OBJECT_NAME": "IRIDIUM 33 DEB", "OBJECT_ID": "1997-051BA", "EPOCH": "2025-12-08T07:37:57.150912", "MEAN_MOTION": 14.56445285, "ECCENTRICITY": 0.00614025, "INCLINATION": 86.3871, "RA_OF_ASC_NODE": 108.6638, "ARG_OF_PERICENTER": 189.0057, "MEAN_ANOMALY": 235.4799, "EPHEMERIS_TYPE": 0, "CLASSIFICATION_TYPE": "U", "NORAD_CAT_ID": 33881, "ELEMENT_SET_NO": 999, "REV_AT_EPOCH": 87436, "BSTAR": 0.002608788, "MEAN_MOTION_DOT": 0.00011917, "MEAN_MOTION_DDOT": 0}, "tle": {"line1": "1 33881U 97051BA  25342.31802258  .00011917  00000+0  26088-2 0  9994", "line2": "2 33881  86.3871 108.6638 0061402 189.0057 235.4799 14.56445285874364"}}, "geometry": {"type": "Point", "coordinates": [110.47981793726149, 28.45558765917942]}}, {"type": "Feature", "properties": {"norad_id": 33884, "name": "IRIDIUM 33 DEB", "group": "iridium-33-debris", "lat": 29.27101211095099, "lon": 13.701645211895952, "alt_km": 631.9575744754256, "timestamp": "2025-12-08T15:42:50.180229+00:00", "meta": {"OBJECT_NAME": "IRIDIUM 33 DEB", "OBJECT_ID": "1997-051BD", "EPOCH": "2025-12-08T01:13:27.836832", "MEAN_MOTION": 14.77291673, "ECCENTRICITY": 0.00101262, "INCLINATION": 86.3689, "RA_OF_ASC_NODE": 11.9343, "ARG_OF_PERICENTER": 341.6884, "MEAN_ANOMALY": 78.9618, "EPHEMERIS_TYPE": 0, "CLASSIFICATION_TYPE": "U", "NORAD_CAT_ID": 33884, "ELEMENT_SET_NO": 999, "REV_AT_EPOCH": 88778, "BSTAR": 0.0017664374, "MEAN_MOTION_DOT": 0.00012576, "MEAN_MOTION_DDOT": 0}, "tle": {"line1": "1 33884U 97051BD  25342.05101663  .00012576  00000+0  17664-2 0  9992", "line2": "2 33884  86.3689  11.9343 0010126 341.6884  78.9618 14.77291673887787"}}, "geometry": {"type": "Point", "coordinates": [13.701645211895952, 29.27101211095099]}}, {"type": "Feature", "properties": {"norad_id": 33886, "name": "IRIDIUM 33 DEB", "group": "iridium-33-debris", "lat": -21.731832001106746, "lon": -109.60726859487924, "alt_km": 772.1513017619945, "timestamp": "2025-12-08T15:42:50.180240+00:00", "meta": {"OBJECT_NAME": "IRIDIUM 33 DEB", "OBJECT_ID": "1997-051BF", "EPOCH": "2025-12-08T06:39:49.456800", "MEAN_MOTION": 14.3604422, "ECCENTRICITY": 0.0012092, "INCLINATION": 86.383, "RA_OF_ASC_NODE": 69.1067, "ARG_OF_PERICENTER": 258.8638, "MEAN_ANOMALY": 154.6731, "EPHEMERIS_TYPE": 0, "CLASSIFICATION_TYPE": "U", "NORAD_CAT_ID": 33886, "ELEMENT_SET_NO": 999, "REV_AT_EPOCH": 87988, "BSTAR": 0.00039665769, "MEAN_MOTION_DOT": 1.173e-05, "MEAN_MOTION_DDOT": 0}, "tle": {"line1": "1 33886U 97051BF  25342.27765575  .00001173  00000+0  39666-3 0  9994", "line2": "2 33886  86.3830  69.1067 0012092 258.8638 154.6731 14.36044220879884"}}, "geometry": {"type": "Point", "coordinates": [-109.60726859487924, -21.731832001106746]}}, {"type": "Feature", "properties": {"norad_id": 33887, "name": "IRIDIUM 33 DEB", "group": "iridium-33-debris", "lat": 58.940886119891765, "lon": 178.9929000934947, "alt_km": 763.8223059751626, "timestamp": "2025-12-08T15:42:50.180251+00:00", "meta": {"OBJECT_NAME": "IRIDIUM 33 DEB", "OBJECT_ID": "1997-051BG", "EPOCH": "2025-12-08T02:03:48.596832", "MEAN_MOTION": 14.37214527, "ECCENTRICITY": 0.00041412, "INCLINATION": 86.3047, "RA_OF_ASC_NODE": 5.3979, "ARG_OF_PERICENTER": 248.2358, "MEAN_ANOMALY": 171.6777, "EPHEMERIS_TYPE": 0, "CLASSIFICATION_TYPE": "U", "NORAD_CAT_ID": 33887, "ELEMENT_SET_NO": 999, "REV_AT_EPOCH": 88098, "BSTAR": 0.00022751387, "MEAN_MOTION_DOT": 6.97e-06, "MEAN_MOTION_DDOT": 0}, "tle": {"line1": "1 33887U 97051BG  25342.08597913  .00000697  00000+0  22751-3 0  9990", "line2": "2 33887  86.3047   5.3979 0004141 248.2358 171.6777 14.37214527880989"}}, "geometry": {"type": "Point", "coordinates": [178.9929000934947, 58.940886119891765]}}, {"type": "Feature", "properties": {"norad_id": 33953, "name": "IRIDIUM 33 DEB", "group": "iridium-33-debris", "lat": 70.45112873080542, "lon": 65.81010554496679, "alt_km": 692.3963273272875, "timestamp": "2025-12-08T15:42:50.180262+00:00", "meta": {"OBJECT_NAME": "IRIDIUM 33 DEB", "OBJECT_ID": "1997-051BN", "EPOCH": "2025-12-08T05:44:14.047872", "MEAN_MOTION": 14.55254775, "ECCENTRICITY": 0.00185004, "INCLINATION": 86.3843, "RA_OF_ASC_NODE": 55.7327, "ARG_OF_PERICENTER": 116.5091, "MEAN_ANOMALY": 298.0526, "EPHEMERIS_TYPE": 0, "CLASSIFICATION_TYPE": "U", "NORAD_CAT_ID": 33953, "ELEMENT_SET_NO": 999, "REV_AT_EPOCH": 88238, "BSTAR": 0.0016404232, "MEAN_MOTION_DOT": 7.139e-05, "MEAN_MOTION_DDOT": 0}, "tle": {"line1": "1 33953U 97051BN  25342.23905148  .00007139  00000+0  16404-2 0  9999", "line2": "2 33953  86.3843  55.7327 0018500 116.5091 298.0526 14.55254775882389"}}, "geometry": {"type": "Point", "coordinates": [65.81010554496679, 70.45112873080542]}}, {"type": "Feature", "properties": {"norad_id": 33960, "name": "IRIDIUM 33 DEB", "group": "iridium-33-debris", "lat": 21.0612086925462, "lon": 109.99352749860887, "alt_km": 614.1984168360023, "timestamp": "2025-12-08T15:42:50.180273+00:00", "meta": {"OBJECT_NAME": "IRIDIUM 33 DEB", "OBJECT_ID": "1997-051BV", "EPOCH": "2025-12-08T07:28:00.962400", "MEAN_MOTION": 14.84826092, "ECCENTRICITY": 0.00072734, "INCLINATION": 86.2534, "RA_OF_ASC_NODE": 291.6014, "ARG_OF_PERICENTER": 68.7377, "MEAN_ANOMALY": 54.3556, "EPHEMERIS_TYPE": 0, "CLASSIFICATION_TYPE": "U", "NORAD_CAT_ID": 33960, "ELEMENT_SET_NO": 999, "REV_AT_EPOCH": 88801, "BSTAR": 0.0037755424, "MEAN_MOTION_DOT": 0.00032208, "MEAN_MOTION_DDOT": 0}, "tle": {"line1": "1 33960U 97051BV  25342.31112225  .00032208  00000+0  37755-2 0  9999", "line2": "2 33960  86.2534 291.6014 0007273  68.7377  54.3556 14.84826092888018"}}, "geometry": {"type": "Point", "coordinates": [109.99352749860887, 21.0612086925462]}}, {"type": "Feature", "properties": {"norad_id": 33966, "name": "IRIDIUM 33 DEB", "group": "iridium-33-debris", "lat": -78.51132057397894, "lon": 29.696595469424015, "alt_km": 733.534931932214, "timestamp": "2025-12-08T15:42:50.180283+00:00", "meta": {"OBJECT_NAME": "IRIDIUM 33 DEB", "OBJECT_ID": "1997-051CB", "EPOCH": "2025-12-08T06:27:26.678592", "MEAN_MOTION": 14.49566068, "ECCENTRICITY": 0.00068989, "INCLINATION": 86.3924, "RA_OF_ASC_NODE": 47.9458, "ARG_OF_PERICENTER": 203.4642, "MEAN_ANOMALY": 225.9934, "EPHEMERIS_TYPE": 0, "CLASSIFICATION_TYPE": "U", "NORAD_CAT_ID": 33966, "ELEMENT_SET_NO": 999, "REV_AT_EPOCH": 88377, "BSTAR": 0.00088724564, "MEAN_MOTION_DOT": 3.424e-05, "MEAN_MOTION_DDOT": 0}, "tle": {"line1": "1 33966U 97051CB  25342.26905878  .00003424  00000+0  88725-3 0  9995", "line2": "2 33966  86.3924  47.9458 0006898 203.4642 225.9934 14.49566068883776"}}, "geometry": {"type": "Point", "coordinates": [29.696595469424015, -78.51132057397894]}}, {"type": "Feature", "properties": {"norad_id": 34071, "name": "IRIDIUM 33 DEB", "group": "iridium-33-debris", "lat": -11.028834894188849, "lon": 18.89016857784962, "alt_km": 736.2635280828363, "timestamp": "2025-12-08T15:42:50.180294+00:00", "meta": {"OBJECT_NAME": "IRIDIUM 33 DEB", "OBJECT_ID": "1997-051CE", "EPOCH": "2025-12-08T04:10:00.113088", "MEAN_MOTION": 14.49433569, "ECCENTRICITY": 0.00097725, "INCLINATION": 86.3456, "RA_OF_ASC_NODE": 19.8129, "ARG_OF_PERICENTER": 119.8612, "MEAN_ANOMALY": 240.3564, "EPHEMERIS_TYPE": 0, "CLASSIFICATION_TYPE": "U", "NORAD_CAT_ID": 34071, "ELEMENT_SET_NO": 999, "REV_AT_EPOCH": 88268, "BSTAR": 0.00080948952, "MEAN_MOTION_DOT": 3.118e-05, "MEAN_MOTION_DDOT": 0}, "tle": {"line1": "1 34071U 97051CE  25342.17361242  .00003118  00000+0  80949-3 0  9994", "line2": "2 34071  86.3456  19.8129 0009772 119.8612 240.3564 14.49433569882686"}}, "geometry": {"type": "Point", "coordinates": [18.89016857784962, -11.028834894188849]}}]}